[
  {
    "OBJECT_NAME": "STARLINK-6150",
    "OBJECT_ID": "23090U",
    "EPOCH": "2025-11-11T00:21:14.426784",
    "MEAN_MOTION": 15.02344047,
    "ECCENTRICITY": 2.45e-05,
    "INCLINATION": 43.0029,
    "RA_OF_ASC_NODE": 199.3207,
    "ARG_OF_PERICENTER": 73.318,
    "MEAN_ANOMALY": 286.7689,
    "EPHEMERIS_TYPE": 0,
    "CLASSIFICATION_TYPE": "U",
    "NORAD_CAT_ID": 57119,
    "ELEMENT_SET_NO": 999,
    "REV_AT_EPOCH": 13256,
    "BSTAR": 0.0029836000000000003,
    "MEAN_MOTION_DOT": 0.00040125,
    "MEAN_MOTION_DDOT": 0.0,
    "TLE_LINE1": "1 57119U 23090U   25315.01475031  .00040125  00000+0  29836-2 0  9995",
    "TLE_LINE2": "2 57119  43.0029 199.3207 0000245  73.3180 286.7689 15.02344047132560",
    "COMMENT": "Grouped by shell and plane from TLE"
  },
  {
    "OBJECT_NAME": "STARLINK-6147",
    "OBJECT_ID": "23090V",
    "EPOCH": "2025-11-11T00:30:44.831808",
    "MEAN_MOTION": 15.0254004,
    "ECCENTRICITY": 9.61e-05,
    "INCLINATION": 43.0037,
    "RA_OF_ASC_NODE": 199.3697,
    "ARG_OF_PERICENTER": 276.9171,
    "MEAN_ANOMALY": 83.1562,
    "EPHEMERIS_TYPE": 0,
    "CLASSIFICATION_TYPE": "U",
    "NORAD_CAT_ID": 57120,
    "ELEMENT_SET_NO": 999,
    "REV_AT_EPOCH": 13256,
    "BSTAR": 0.00012152,
    "MEAN_MOTION_DOT": 1.438e-05,
    "MEAN_MOTION_DDOT": 0.0,
    "TLE_LINE1": "1 57120U 23090V   25315.02135222  .00001438  00000+0  12152-3 0  9991",
    "TLE_LINE2": "2 57120  43.0037 199.3697 0000961 276.9171  83.1562 15.02540040132560",
    "COMMENT": "Grouped by shell and plane from TLE"
  },
  {
    "OBJECT_NAME": "STARLINK-6152",
    "OBJECT_ID": "23090W",
    "EPOCH": "2025-11-11T01:44:06.388224",
    "MEAN_MOTION": 15.02537861,
    "ECCENTRICITY": 0.0001114,
    "INCLINATION": 43.0035,
    "RA_OF_ASC_NODE": 198.8901,
    "ARG_OF_PERICENTER": 272.1168,
    "MEAN_ANOMALY": 87.9547,
    "EPHEMERIS_TYPE": 0,
    "CLASSIFICATION_TYPE": "U",
    "NORAD_CAT_ID": 57121,
    "ELEMENT_SET_NO": 999,
    "REV_AT_EPOCH": 13238,
    "BSTAR": 0.00013049,
    "MEAN_MOTION_DOT": 1.56e-05,
    "MEAN_MOTION_DDOT": 0.0,
    "TLE_LINE1": "1 57121U 23090W   25315.07229616  .00001560  00000+0  13049-3 0  9990",
    "TLE_LINE2": "2 57121  43.0035 198.8901 0001114 272.1168  87.9547 15.02537861132388",
    "COMMENT": "Grouped by shell and plane from TLE"
  },
  {
    "OBJECT_NAME": "STARLINK-6149",
    "OBJECT_ID": "23090X",
    "EPOCH": "2025-11-11T00:16:21.833184",
    "MEAN_MOTION": 15.02543254,
    "ECCENTRICITY": 0.0001001,
    "INCLINATION": 43.0027,
    "RA_OF_ASC_NODE": 199.2962,
    "ARG_OF_PERICENTER": 281.9143,
    "MEAN_ANOMALY": 78.1587,
    "EPHEMERIS_TYPE": 0,
    "CLASSIFICATION_TYPE": "U",
    "NORAD_CAT_ID": 57122,
    "ELEMENT_SET_NO": 999,
    "REV_AT_EPOCH": 13256,
    "BSTAR": 8.3995e-05,
    "MEAN_MOTION_DOT": 9.31e-06,
    "MEAN_MOTION_DDOT": 0.0,
    "TLE_LINE1": "1 57122U 23090X   25315.01136381  .00000931  00000+0  83995-4 0  9990",
    "TLE_LINE2": "2 57122  43.0027 199.2962 0001001 281.9143  78.1587 15.02543254132567",
    "COMMENT": "Grouped by shell and plane from TLE"
  },
  {
    "OBJECT_NAME": "STARLINK-6154",
    "OBJECT_ID": "23090Y",
    "EPOCH": "2025-11-11T00:03:34.459488",
    "MEAN_MOTION": 15.02540871,
    "ECCENTRICITY": 7.79e-05,
    "INCLINATION": 43.0038,
    "RA_OF_ASC_NODE": 199.2261,
    "ARG_OF_PERICENTER": 288.2872,
    "MEAN_ANOMALY": 71.7885,
    "EPHEMERIS_TYPE": 0,
    "CLASSIFICATION_TYPE": "U",
    "NORAD_CAT_ID": 57123,
    "ELEMENT_SET_NO": 999,
    "REV_AT_EPOCH": 13237,
    "BSTAR": 0.00013093,
    "MEAN_MOTION_DOT": 1.566e-05,
    "MEAN_MOTION_DDOT": 0.0,
    "TLE_LINE1": "1 57123U 23090Y   25315.00248217  .00001566  00000+0  13093-3 0  9998",
    "TLE_LINE2": "2 57123  43.0038 199.2261 0000779 288.2872  71.7885 15.02540871132373",
    "COMMENT": "Grouped by shell and plane from TLE"
  },
  {
    "OBJECT_NAME": "STARLINK-6146",
    "OBJECT_ID": "23090Z",
    "EPOCH": "2025-11-11T01:48:53.885952",
    "MEAN_MOTION": 15.02538806,
    "ECCENTRICITY": 0.0001134,
    "INCLINATION": 43.0032,
    "RA_OF_ASC_NODE": 198.9178,
    "ARG_OF_PERICENTER": 270.0489,
    "MEAN_ANOMALY": 90.0223,
    "EPHEMERIS_TYPE": 0,
    "CLASSIFICATION_TYPE": "U",
    "NORAD_CAT_ID": 57124,
    "ELEMENT_SET_NO": 999,
    "REV_AT_EPOCH": 13257,
    "BSTAR": 8.921200000000001e-05,
    "MEAN_MOTION_DOT": 1.002e-05,
    "MEAN_MOTION_DDOT": 0.0,
    "TLE_LINE1": "1 57124U 23090Z   25315.07562368  .00001002  00000+0  89212-4 0  9994",
    "TLE_LINE2": "2 57124  43.0032 198.9178 0001134 270.0489  90.0223 15.02538806132577",
    "COMMENT": "Grouped by shell and plane from TLE"
  },
  {
    "OBJECT_NAME": "STARLINK-6167",
    "OBJECT_ID": "23090AB",
    "EPOCH": "2025-11-11T01:47:17.791872",
    "MEAN_MOTION": 15.02545675,
    "ECCENTRICITY": 0.0001091,
    "INCLINATION": 43.0034,
    "RA_OF_ASC_NODE": 198.9085,
    "ARG_OF_PERICENTER": 273.9426,
    "MEAN_ANOMALY": 86.1291,
    "EPHEMERIS_TYPE": 0,
    "CLASSIFICATION_TYPE": "U",
    "NORAD_CAT_ID": 57126,
    "ELEMENT_SET_NO": 999,
    "REV_AT_EPOCH": 13257,
    "BSTAR": 9.728e-05,
    "MEAN_MOTION_DOT": 1.111e-05,
    "MEAN_MOTION_DDOT": 0.0,
    "TLE_LINE1": "1 57126U 23090AB  25315.07451148  .00001111  00000+0  97280-4 0  9994",
    "TLE_LINE2": "2 57126  43.0034 198.9085 0001091 273.9426  86.1291 15.02545675132576",
    "COMMENT": "Grouped by shell and plane from TLE"
  },
  {
    "OBJECT_NAME": "STARLINK-6165",
    "OBJECT_ID": "23090AC",
    "EPOCH": "2025-11-11T01:32:55.162176",
    "MEAN_MOTION": 15.02535486,
    "ECCENTRICITY": 0.0001037,
    "INCLINATION": 43.0018,
    "RA_OF_ASC_NODE": 198.8281,
    "ARG_OF_PERICENTER": 269.082,
    "MEAN_ANOMALY": 90.9903,
    "EPHEMERIS_TYPE": 0,
    "CLASSIFICATION_TYPE": "U",
    "NORAD_CAT_ID": 57127,
    "ELEMENT_SET_NO": 999,
    "REV_AT_EPOCH": 13238,
    "BSTAR": 3.2233e-05,
    "MEAN_MOTION_DOT": 2.32e-06,
    "MEAN_MOTION_DDOT": 0.0,
    "TLE_LINE1": "1 57127U 23090AC  25315.06452734  .00000232  00000+0  32233-4 0  9996",
    "TLE_LINE2": "2 57127  43.0018 198.8281 0001037 269.0820  90.9903 15.02535486132381",
    "COMMENT": "Grouped by shell and plane from TLE"
  },
  {
    "OBJECT_NAME": "STARLINK-6163",
    "OBJECT_ID": "23090AD",
    "EPOCH": "2025-11-11T01:42:29.964096",
    "MEAN_MOTION": 15.02556751,
    "ECCENTRICITY": 0.0001276,
    "INCLINATION": 43.0035,
    "RA_OF_ASC_NODE": 198.8829,
    "ARG_OF_PERICENTER": 280.4135,
    "MEAN_ANOMALY": 79.6564,
    "EPHEMERIS_TYPE": 0,
    "CLASSIFICATION_TYPE": "U",
    "NORAD_CAT_ID": 57128,
    "ELEMENT_SET_NO": 999,
    "REV_AT_EPOCH": 13238,
    "BSTAR": 4.7889e-05,
    "MEAN_MOTION_DOT": 4.44e-06,
    "MEAN_MOTION_DDOT": 0.0,
    "TLE_LINE1": "1 57128U 23090AD  25315.07118014  .00000444  00000+0  47889-4 0  9996",
    "TLE_LINE2": "2 57128  43.0035 198.8829 0001276 280.4135  79.6564 15.02556751132385",
    "COMMENT": "Grouped by shell and plane from TLE"
  },
  {
    "OBJECT_NAME": "STARLINK-6172",
    "OBJECT_ID": "23090AF",
    "EPOCH": "2025-11-11T01:34:30.244512",
    "MEAN_MOTION": 15.02544107,
    "ECCENTRICITY": 0.0001446,
    "INCLINATION": 43.0036,
    "RA_OF_ASC_NODE": 198.8399,
    "ARG_OF_PERICENTER": 270.0051,
    "MEAN_ANOMALY": 90.0625,
    "EPHEMERIS_TYPE": 0,
    "CLASSIFICATION_TYPE": "U",
    "NORAD_CAT_ID": 57130,
    "ELEMENT_SET_NO": 999,
    "REV_AT_EPOCH": 13238,
    "BSTAR": 0.00014162,
    "MEAN_MOTION_DOT": 1.71e-05,
    "MEAN_MOTION_DDOT": 0.0,
    "TLE_LINE1": "1 57130U 23090AF  25315.06562783  .00001710  00000+0  14162-3 0  9998",
    "TLE_LINE2": "2 57130  43.0036 198.8399 0001446 270.0051  90.0625 15.02544107132389",
    "COMMENT": "Grouped by shell and plane from TLE"
  },
  {
    "OBJECT_NAME": "STARLINK-6128",
    "OBJECT_ID": "23090AH",
    "EPOCH": "2025-11-11T01:24:55.370016",
    "MEAN_MOTION": 15.0254199,
    "ECCENTRICITY": 8.43e-05,
    "INCLINATION": 43.0022,
    "RA_OF_ASC_NODE": 198.7899,
    "ARG_OF_PERICENTER": 273.5306,
    "MEAN_ANOMALY": 86.544,
    "EPHEMERIS_TYPE": 0,
    "CLASSIFICATION_TYPE": "U",
    "NORAD_CAT_ID": 57132,
    "ELEMENT_SET_NO": 999,
    "REV_AT_EPOCH": 13238,
    "BSTAR": 2.2596000000000002e-05,
    "MEAN_MOTION_DOT": 1.02e-06,
    "MEAN_MOTION_DDOT": 0.0,
    "TLE_LINE1": "1 57132U 23090AH  25315.05897419  .00000102  00000+0  22596-4 0  9991",
    "TLE_LINE2": "2 57132  43.0022 198.7899 0000843 273.5306  86.5440 15.02541990132383",
    "COMMENT": "Grouped by shell and plane from TLE"
  },
  {
    "OBJECT_NAME": "STARLINK-30446",
    "OBJECT_ID": "23144J",
    "EPOCH": "2025-11-11T02:04:50.621664",
    "MEAN_MOTION": 15.025343,
    "ECCENTRICITY": 0.0001102,
    "INCLINATION": 43.0039,
    "RA_OF_ASC_NODE": 198.8073,
    "ARG_OF_PERICENTER": 267.663,
    "MEAN_ANOMALY": 92.4087,
    "EPHEMERIS_TYPE": 0,
    "CLASSIFICATION_TYPE": "U",
    "NORAD_CAT_ID": 57872,
    "ELEMENT_SET_NO": 999,
    "REV_AT_EPOCH": 11965,
    "BSTAR": 9.673800000000001e-05,
    "MEAN_MOTION_DOT": 1.103e-05,
    "MEAN_MOTION_DDOT": 0.0,
    "TLE_LINE1": "1 57872U 23144J   25315.08669701  .00001103  00000+0  96738-4 0  9997",
    "TLE_LINE2": "2 57872  43.0039 198.8073 0001102 267.6630  92.4087 15.02534300119655",
    "COMMENT": "Grouped by shell and plane from TLE"
  }
]